STARLINK-5700           
1 55607U 23020AQ  25332.02142750  .00000652  00000+0  63317-4 0  9992
2 55607  43.0024 184.2850 0001663 261.7567  98.3086 15.02547560153778
STARLINK-5726           
1 55608U 23020AR  25331.88625701 -.00000041  00000+0  12040-4 0  9998
2 55608  43.0021 184.9918 0001165 265.5249  94.5460 15.02533241153757
STARLINK-5719           
1 55609U 23020AS  25332.02475434 -.00000679  00000+0 -35160-4 0  9998
2 55609  43.0046 184.3079 0001455 265.6874  94.3802 15.02537386153778
STARLINK-5722           
1 55610U 23020AT  25331.87848394  .00000138  00000+0  25265-4 0  9994
2 55610  43.0009 184.9332 0000793 266.2085  93.8667 15.02534185153757
STARLINK-5730           
1 55611U 23020AU  25331.87626361  .00000106  00000+0  22912-4 0  9994
2 55611  43.0015 184.9163 0001094 266.2411  93.8306 15.02533075153752
STARLINK-5734           
1 55612U 23020AV  25331.87515273 -.00000437  00000+0 -17247-4 0  9998
2 55612  43.0027 184.9079 0001520 265.5688  94.4981 15.02536600153757
STARLINK-5714           
1 55614U 23020AX  25331.01563127 -.00000101  00000+0  76019-5 0  9997
2 55614  43.0017 176.5809 0001153 263.6736  96.3975 15.02535067153773
STARLINK-5712           
1 55615U 23020AY  25331.87182291  .00000274  00000+0  35390-4 0  9997
2 55615  43.0007 184.8822 0001373 261.6785  98.3902 15.02534697153754
STARLINK-5710           
1 55616U 23020AZ  25331.86294156  .00000370  00000+0  42475-4 0  9990
2 55616  43.0016 184.8164 0001083 269.0818  90.9900 15.02537134153756
STARLINK-5721           
1 55617U 23020BA  25331.86849320  .00000131  00000+0  24736-4 0  9995
2 55617  43.0020 184.8554 0001057 266.6144  93.4577 15.02535534153751
STARLINK-5717           
1 55618U 23020BB  25331.86183256  .00000031  00000+0  17333-4 0  9999
2 55618  43.0020 184.8073 0001233 259.6467 100.4236 15.02534147153754
STARLINK-5720           
1 55619U 23020BC  25331.85850572 -.00000212  00000+0 -64712-6 0  9999
2 55619  43.0026 184.7804 0001208 267.9199  92.1505 15.02531143153757
STARLINK-5718           
1 55620U 23020BD  25330.65857117 -.00000287  00000+0 -61438-5 0  9993
2 55620  43.0024 191.2563 0001201 264.4234  95.6471 15.02538843153571
STARLINK-5709           
1 55621U 23020BE  25331.86627088 -.00001826  00000+0 -12014-3 0  9994
2 55621  43.0025 184.8413 0000930 268.6371  91.4365 15.02535064153759
STARLINK-5702           
1 55622U 23020BF  25330.98874332 -.00000502  00000+0 -22071-4 0  9998
2 55622  43.0030 189.4384 0001200 265.9937  94.0768 15.02533778153625
STARLINK-5698           
1 55623U 23020BG  25331.58260070  .00000631  00000+0  61793-4 0  9999
2 55623  43.0023 186.1512 0001301 266.5253  93.5441 15.02534955153715
