[{"OBJECT_NAME":"STARLINK-5700","OBJECT_ID":"2023-020AQ","EPOCH":"2025-11-28T00:30:51.336000","MEAN_MOTION":15.0254756,"ECCENTRICITY":0.0001663,"INCLINATION":43.0024,"RA_OF_ASC_NODE":184.285,"ARG_OF_PERICENTER":261.7567,"MEAN_ANOMALY":98.3086,"EPHEMERIS_TYPE":0,"CLASSIFICATION_TYPE":"U","NORAD_CAT_ID":55607,"ELEMENT_SET_NO":999,"REV_AT_EPOCH":15377,"BSTAR":6.3317e-5,"MEAN_MOTION_DOT":6.52e-6,"MEAN_MOTION_DDOT":0},{"OBJECT_NAME":"STARLINK-5726","OBJECT_ID":"2023-020AR","EPOCH":"2025-11-27T21:16:12.605664","MEAN_MOTION":15.02533241,"ECCENTRICITY":0.00011655,"INCLINATION":43.0021,"RA_OF_ASC_NODE":184.9918,"ARG_OF_PERICENTER":265.5249,"MEAN_ANOMALY":94.546,"EPHEMERIS_TYPE":0,"CLASSIFICATION_TYPE":"U","NORAD_CAT_ID":55608,"ELEMENT_SET_NO":999,"REV_AT_EPOCH":15375,"BSTAR":1.2040154e-5,"MEAN_MOTION_DOT":-4.1e-7,"MEAN_MOTION_DDOT":0},{"OBJECT_NAME":"STARLINK-5719","OBJECT_ID":"2023-020AS","EPOCH":"2025-11-28T00:35:38.774976","MEAN_MOTION":15.02537386,"ECCENTRICITY":0.0001455,"INCLINATION":43.0046,"RA_OF_ASC_NODE":184.3079,"ARG_OF_PERICENTER":265.6874,"MEAN_ANOMALY":94.3802,"EPHEMERIS_TYPE":0,"CLASSIFICATION_TYPE":"U","NORAD_CAT_ID":55609,"ELEMENT_SET_NO":999,"REV_AT_EPOCH":15377,"BSTAR":-3.516e-5,"MEAN_MOTION_DOT":-6.79e-6,"MEAN_MOTION_DDOT":0},{"OBJECT_NAME":"STARLINK-5722","OBJECT_ID":"2023-020AT","EPOCH":"2025-11-27T21:05:01.012416","MEAN_MOTION":15.02534185,"ECCENTRICITY":7.937e-5,"INCLINATION":43.0009,"RA_OF_ASC_NODE":184.9332,"ARG_OF_PERICENTER":266.2085,"MEAN_ANOMALY":93.8667,"EPHEMERIS_TYPE":0,"CLASSIFICATION_TYPE":"U","NORAD_CAT_ID":55610,"ELEMENT_SET_NO":999,"REV_AT_EPOCH":15375,"BSTAR":2.5264685e-5,"MEAN_MOTION_DOT":1.38e-6,"MEAN_MOTION_DDOT":0},{"OBJECT_NAME":"STARLINK-5730","OBJECT_ID":"2023-020AU","EPOCH":"2025-11-27T21:01:49.175904","MEAN_MOTION":15.02533075,"ECCENTRICITY":0.00010948,"INCLINATION":43.0015,"RA_OF_ASC_NODE":184.9163,"ARG_OF_PERICENTER":266.2411,"MEAN_ANOMALY":93.8306,"EPHEMERIS_TYPE":0,"CLASSIFICATION_TYPE":"U","NORAD_CAT_ID":55611,"ELEMENT_SET_NO":999,"REV_AT_EPOCH":15375,"BSTAR":2.2912198e-5,"MEAN_MOTION_DOT":1.06e-6,"MEAN_MOTION_DDOT":0},{"OBJECT_NAME":"STARLINK-5734","OBJECT_ID":"2023-020AV","EPOCH":"2025-11-27T21:00:13.195872","MEAN_MOTION":15.025366,"ECCENTRICITY":0.00015206,"INCLINATION":43.0027,"RA_OF_ASC_NODE":184.9079,"ARG_OF_PERICENTER":265.5688,"MEAN_ANOMALY":94.4981,"EPHEMERIS_TYPE":0,"CLASSIFICATION_TYPE":"U","NORAD_CAT_ID":55612,"ELEMENT_SET_NO":999,"REV_AT_EPOCH":15375,"BSTAR":-1.7246554e-5,"MEAN_MOTION_DOT":-4.37e-6,"MEAN_MOTION_DDOT":0},{"OBJECT_NAME":"STARLINK-5714","OBJECT_ID":"2023-020AX","EPOCH":"2025-11-27T00:22:30.541728","MEAN_MOTION":15.02535067,"ECCENTRICITY":0.00011531,"INCLINATION":43.0017,"RA_OF_ASC_NODE":176.5809,"ARG_OF_PERICENTER":263.6736,"MEAN_ANOMALY":96.3975,"EPHEMERIS_TYPE":0,"CLASSIFICATION_TYPE":"U","NORAD_CAT_ID":55614,"ELEMENT_SET_NO":999,"REV_AT_EPOCH":15377,"BSTAR":7.601878e-6,"MEAN_MOTION_DOT":-1.01e-6,"MEAN_MOTION_DDOT":0},{"OBJECT_NAME":"STARLINK-5712","OBJECT_ID":"2023-020AY","EPOCH":"2025-11-27T20:55:25.499424","MEAN_MOTION":15.02534697,"ECCENTRICITY":0.00013733,"INCLINATION":43.0007,"RA_OF_ASC_NODE":184.8822,"ARG_OF_PERICENTER":261.6785,"MEAN_ANOMALY":98.3902,"EPHEMERIS_TYPE":0,"CLASSIFICATION_TYPE":"U","NORAD_CAT_ID":55615,"ELEMENT_SET_NO":999,"REV_AT_EPOCH":15375,"BSTAR":3.5390251e-5,"MEAN_MOTION_DOT":2.74e-6,"MEAN_MOTION_DDOT":0},{"OBJECT_NAME":"STARLINK-5710","OBJECT_ID":"2023-020AZ","EPOCH":"2025-11-27T20:42:38.150784","MEAN_MOTION":15.02537134,"ECCENTRICITY":0.00010839,"INCLINATION":43.0016,"RA_OF_ASC_NODE":184.8164,"ARG_OF_PERICENTER":269.0818,"MEAN_ANOMALY":90.99,"EPHEMERIS_TYPE":0,"CLASSIFICATION_TYPE":"U","NORAD_CAT_ID":55616,"ELEMENT_SET_NO":999,"REV_AT_EPOCH":15375,"BSTAR":4.2474771e-5,"MEAN_MOTION_DOT":3.7e-6,"MEAN_MOTION_DDOT":0},{"OBJECT_NAME":"STARLINK-5721","OBJECT_ID":"2023-020BA","EPOCH":"2025-11-27T20:50:37.812480","MEAN_MOTION":15.02535534,"ECCENTRICITY":0.00010579,"INCLINATION":43.002,"RA_OF_ASC_NODE":184.8554,"ARG_OF_PERICENTER":266.6144,"MEAN_ANOMALY":93.4577,"EPHEMERIS_TYPE":0,"CLASSIFICATION_TYPE":"U","NORAD_CAT_ID":55617,"ELEMENT_SET_NO":999,"REV_AT_EPOCH":15375,"BSTAR":2.4735609e-5,"MEAN_MOTION_DOT":1.31e-6,"MEAN_MOTION_DDOT":0},{"OBJECT_NAME":"STARLINK-5717","OBJECT_ID":"2023-020BB","EPOCH":"2025-11-27T20:41:02.333184","MEAN_MOTION":15.02534147,"ECCENTRICITY":0.00012338,"INCLINATION":43.002,"RA_OF_ASC_NODE":184.8073,"ARG_OF_PERICENTER":259.6467,"MEAN_ANOMALY":100.4236,"EPHEMERIS_TYPE":0,"CLASSIFICATION_TYPE":"U","NORAD_CAT_ID":55618,"ELEMENT_SET_NO":999,"REV_AT_EPOCH":15375,"BSTAR":1.7333493e-5,"MEAN_MOTION_DOT":3.1e-7,"MEAN_MOTION_DDOT":0},{"OBJECT_NAME":"STARLINK-5720","OBJECT_ID":"2023-020BC","EPOCH":"2025-11-27T20:36:14.894208","MEAN_MOTION":15.02531143,"ECCENTRICITY":0.0001208,"INCLINATION":43.0026,"RA_OF_ASC_NODE":184.7804,"ARG_OF_PERICENTER":267.9199,"MEAN_ANOMALY":92.1505,"EPHEMERIS_TYPE":0,"CLASSIFICATION_TYPE":"U","NORAD_CAT_ID":55619,"ELEMENT_SET_NO":999,"REV_AT_EPOCH":15375,"BSTAR":-6.47124e-7,"MEAN_MOTION_DOT":-2.12e-6,"MEAN_MOTION_DDOT":0},{"OBJECT_NAME":"STARLINK-5718","OBJECT_ID":"2023-020BD","EPOCH":"2025-11-26T15:48:20.549088","MEAN_MOTION":15.02538843,"ECCENTRICITY":0.00012019,"INCLINATION":43.0024,"RA_OF_ASC_NODE":191.2563,"ARG_OF_PERICENTER":264.4234,"MEAN_ANOMALY":95.6471,"EPHEMERIS_TYPE":0,"CLASSIFICATION_TYPE":"U","NORAD_CAT_ID":55620,"ELEMENT_SET_NO":999,"REV_AT_EPOCH":15357,"BSTAR":-6.143834e-6,"MEAN_MOTION_DOT":-2.87e-6,"MEAN_MOTION_DDOT":0},{"OBJECT_NAME":"STARLINK-5709","OBJECT_ID":"2023-020BE","EPOCH":"2025-11-27T20:47:25.804032","MEAN_MOTION":15.02535064,"ECCENTRICITY":9.301e-5,"INCLINATION":43.0025,"RA_OF_ASC_NODE":184.8413,"ARG_OF_PERICENTER":268.6371,"MEAN_ANOMALY":91.4365,"EPHEMERIS_TYPE":0,"CLASSIFICATION_TYPE":"U","NORAD_CAT_ID":55621,"ELEMENT_SET_NO":999,"REV_AT_EPOCH":15375,"BSTAR":-0.0001201414,"MEAN_MOTION_DOT":-1.826e-5,"MEAN_MOTION_DDOT":0},{"OBJECT_NAME":"STARLINK-5702","OBJECT_ID":"2023-020BF","EPOCH":"2025-11-26T23:43:47.422848","MEAN_MOTION":15.02533778,"ECCENTRICITY":0.00012006,"INCLINATION":43.003,"RA_OF_ASC_NODE":189.4384,"ARG_OF_PERICENTER":265.9937,"MEAN_ANOMALY":94.0768,"EPHEMERIS_TYPE":0,"CLASSIFICATION_TYPE":"U","NORAD_CAT_ID":55622,"ELEMENT_SET_NO":999,"REV_AT_EPOCH":15362,"BSTAR":-2.2070993e-5,"MEAN_MOTION_DOT":-5.02e-6,"MEAN_MOTION_DDOT":0},{"OBJECT_NAME":"STARLINK-5698","OBJECT_ID":"2023-020BG","EPOCH":"2025-11-27T13:58:56.700480","MEAN_MOTION":15.02534955,"ECCENTRICITY":0.00013012,"INCLINATION":43.0023,"RA_OF_ASC_NODE":186.1512,"ARG_OF_PERICENTER":266.5253,"MEAN_ANOMALY":93.5441,"EPHEMERIS_TYPE":0,"CLASSIFICATION_TYPE":"U","NORAD_CAT_ID":55623,"ELEMENT_SET_NO":999,"REV_AT_EPOCH":15371,"BSTAR":6.1793375e-5,"MEAN_MOTION_DOT":6.31e-6,"MEAN_MOTION_DDOT":0}]
